H-2A R/B                
1 38341U 12025E   25301.43799990  .00004787  00000+0  44624-3 0  9998
2 38341  98.4525 253.2115 0046592  27.0029 333.3599 14.93957503728467
SHIJIAN-16 (SJ-16)      
1 39358U 13057A   25301.67213235  .00001812  00000+0  18230-3 0  9992
2 39358  74.9724  74.9090 0015985  71.7182 288.5743 14.91736121651819
SL-4 R/B                
1 39679U 14021B   25301.19737633  .00019664  00000+0  48575-3 0  9999
2 39679  51.6075 261.6455 0105374 342.0626  17.6648 15.34903789635894
ALOS-2                  
1 39766U 14029A   25301.63183243  .00002649  00000+0  36164-3 0  9991
2 39766  97.9228  37.1198 0001099  96.4779 263.6558 14.79446291617343
YAOGAN-29               
1 41038U 15069A   25301.67617773  .00000659  00000+0  88190-4 0  9991
2 41038  98.0270 324.6920 0002778  73.7865 286.3654 14.82807082536312
ASTRO-H (HITOMI)        
1 41337U 16012A   25301.64863749  .00004390  00000+0  26539-3 0  9999
2 41337  30.9980 127.9679 0009882  84.1479 276.0285 15.08942330532263
HXMT (HUIYAN)           
1 42758U 17034A   25301.65569734  .00008330  00000+0  43840-3 0  9992
2 42758  43.0154  29.6762 0031938 121.9386 238.4574 15.15501851462491
CZ-2C R/B               
1 43521U 18054D   25301.62772779  .00076581  00000+0  74251-3 0  9999
2 43521  35.1345 124.5843 0025870  66.0912 294.2525 15.64709359407965
SAOCOM 1A               
1 43641U 18076A   25301.64235965  .00000745  00000+0  10005-3 0  9995
2 43641  97.8877 126.7162 0001418  85.9383 274.1993 14.82169746381804
H-2A R/B                
1 43682U 18084L   25301.55494353  .00022902  00000+0  66330-3 0  9998
2 43682  98.8821 126.3504 0029408 119.4263 240.9917 15.35168742385461
SAOCOM 1B               
1 46265U 20059A   25301.60613807  .00000738  00000+0  99227-4 0  9991
2 46265  97.8866 125.7836 0001371  88.1269 272.0101 14.82160976279181
CSS (TIANHE)            
1 48274U 21035A   25301.24730781  .00036535  00000+0  42648-3 0  9997
2 48274  41.4667 293.0437 0010782 297.7398  62.2347 15.60823296256926
