CCSDS_OMM_VERS = 2.0
CREATION_DATE  = 
ORIGINATOR     = 

OBJECT_NAME    = H-2A R/B
OBJECT_ID      = 2012-025E
CENTER_NAME    = EARTH
REF_FRAME      = TEME
TIME_SYSTEM    = UTC
MEAN_ELEMENT_THEORY = SGP/SGP4

EPOCH          = 2025-10-28T10:30:43.191360
MEAN_MOTION    = 14.93957503
ECCENTRICITY   = .0046592
INCLINATION    = 98.4525
RA_OF_ASC_NODE = 253.2115
ARG_OF_PERICENTER = 27.0029
MEAN_ANOMALY   = 333.3599

EPHEMERIS_TYPE = 0
CLASSIFICATION_TYPE = U
NORAD_CAT_ID   = 38341
ELEMENT_SET_NO = 999
REV_AT_EPOCH   = 72846
BSTAR          = .44624394E-3
MEAN_MOTION_DOT = .4787E-4
MEAN_MOTION_DDOT = 0

CCSDS_OMM_VERS = 2.0
CREATION_DATE  = 
ORIGINATOR     = 

OBJECT_NAME    = SHIJIAN-16 (SJ-16)
OBJECT_ID      = 2013-057A
CENTER_NAME    = EARTH
REF_FRAME      = TEME
TIME_SYSTEM    = UTC
MEAN_ELEMENT_THEORY = SGP/SGP4

EPOCH          = 2025-10-28T16:07:52.235040
MEAN_MOTION    = 14.91736121
ECCENTRICITY   = .00159855
INCLINATION    = 74.9724
RA_OF_ASC_NODE = 74.9090
ARG_OF_PERICENTER = 71.7182
MEAN_ANOMALY   = 288.5743

EPHEMERIS_TYPE = 0
CLASSIFICATION_TYPE = U
NORAD_CAT_ID   = 39358
ELEMENT_SET_NO = 999
REV_AT_EPOCH   = 65181
BSTAR          = .18229911E-3
MEAN_MOTION_DOT = .1812E-4
MEAN_MOTION_DDOT = 0

CCSDS_OMM_VERS = 2.0
CREATION_DATE  = 
ORIGINATOR     = 

OBJECT_NAME    = SL-4 R/B
OBJECT_ID      = 2014-021B
CENTER_NAME    = EARTH
REF_FRAME      = TEME
TIME_SYSTEM    = UTC
MEAN_ELEMENT_THEORY = SGP/SGP4

EPOCH          = 2025-10-28T04:44:13.314912
MEAN_MOTION    = 15.34903789
ECCENTRICITY   = .0105374
INCLINATION    = 51.6075
RA_OF_ASC_NODE = 261.6455
ARG_OF_PERICENTER = 342.0626
MEAN_ANOMALY   = 17.6648

EPHEMERIS_TYPE = 0
CLASSIFICATION_TYPE = U
NORAD_CAT_ID   = 39679
ELEMENT_SET_NO = 999
REV_AT_EPOCH   = 63589
BSTAR          = .48574556E-3
MEAN_MOTION_DOT = .19664E-3
MEAN_MOTION_DDOT = 0

CCSDS_OMM_VERS = 2.0
CREATION_DATE  = 
ORIGINATOR     = 

OBJECT_NAME    = ALOS-2
OBJECT_ID      = 2014-029A
CENTER_NAME    = EARTH
REF_FRAME      = TEME
TIME_SYSTEM    = UTC
MEAN_ELEMENT_THEORY = SGP/SGP4

EPOCH          = 2025-10-28T15:09:50.321952
MEAN_MOTION    = 14.79446291
ECCENTRICITY   = .00010999
INCLINATION    = 97.9228
RA_OF_ASC_NODE = 37.1198
ARG_OF_PERICENTER = 96.4779
MEAN_ANOMALY   = 263.6558

EPHEMERIS_TYPE = 0
CLASSIFICATION_TYPE = U
NORAD_CAT_ID   = 39766
ELEMENT_SET_NO = 999
REV_AT_EPOCH   = 61734
BSTAR          = .3616387E-3
MEAN_MOTION_DOT = .2649E-4
MEAN_MOTION_DDOT = 0

CCSDS_OMM_VERS = 2.0
CREATION_DATE  = 
ORIGINATOR     = 

OBJECT_NAME    = YAOGAN-29
OBJECT_ID      = 2015-069A
CENTER_NAME    = EARTH
REF_FRAME      = TEME
TIME_SYSTEM    = UTC
MEAN_ELEMENT_THEORY = SGP/SGP4

EPOCH          = 2025-10-28T16:13:41.755872
MEAN_MOTION    = 14.82807082
ECCENTRICITY   = .00027784
INCLINATION    = 98.0270
RA_OF_ASC_NODE = 324.6920
ARG_OF_PERICENTER = 73.7865
MEAN_ANOMALY   = 286.3654

EPHEMERIS_TYPE = 0
CLASSIFICATION_TYPE = U
NORAD_CAT_ID   = 41038
ELEMENT_SET_NO = 999
REV_AT_EPOCH   = 53631
BSTAR          = .88190479E-4
MEAN_MOTION_DOT = .659E-5
MEAN_MOTION_DDOT = 0

CCSDS_OMM_VERS = 2.0
CREATION_DATE  = 
ORIGINATOR     = 

OBJECT_NAME    = ASTRO-H (HITOMI)
OBJECT_ID      = 2016-012A
CENTER_NAME    = EARTH
REF_FRAME      = TEME
TIME_SYSTEM    = UTC
MEAN_ELEMENT_THEORY = SGP/SGP4

EPOCH          = 2025-10-28T15:34:02.279136
MEAN_MOTION    = 15.08942330
ECCENTRICITY   = .00098828
INCLINATION    = 30.9980
RA_OF_ASC_NODE = 127.9679
ARG_OF_PERICENTER = 84.1479
MEAN_ANOMALY   = 276.0285

EPHEMERIS_TYPE = 0
CLASSIFICATION_TYPE = U
NORAD_CAT_ID   = 41337
ELEMENT_SET_NO = 999
REV_AT_EPOCH   = 53226
BSTAR          = .2653947E-3
MEAN_MOTION_DOT = .439E-4
MEAN_MOTION_DDOT = 0

CCSDS_OMM_VERS = 2.0
CREATION_DATE  = 
ORIGINATOR     = 

OBJECT_NAME    = HXMT (HUIYAN)
OBJECT_ID      = 2017-034A
CENTER_NAME    = EARTH
REF_FRAME      = TEME
TIME_SYSTEM    = UTC
MEAN_ELEMENT_THEORY = SGP/SGP4

EPOCH          = 2025-10-28T15:44:12.250176
MEAN_MOTION    = 15.15501851
ECCENTRICITY   = .00319382
INCLINATION    = 43.0154
RA_OF_ASC_NODE = 29.6762
ARG_OF_PERICENTER = 121.9386
MEAN_ANOMALY   = 238.4574

EPHEMERIS_TYPE = 0
CLASSIFICATION_TYPE = U
NORAD_CAT_ID   = 42758
ELEMENT_SET_NO = 999
REV_AT_EPOCH   = 46249
BSTAR          = .43839972E-3
MEAN_MOTION_DOT = .833E-4
MEAN_MOTION_DDOT = 0

CCSDS_OMM_VERS = 2.0
CREATION_DATE  = 
ORIGINATOR     = 

OBJECT_NAME    = CZ-2C R/B
OBJECT_ID      = 2018-054D
CENTER_NAME    = EARTH
REF_FRAME      = TEME
TIME_SYSTEM    = UTC
MEAN_ELEMENT_THEORY = SGP/SGP4

EPOCH          = 2025-10-28T15:03:55.681056
MEAN_MOTION    = 15.64709359
ECCENTRICITY   = .00258706
INCLINATION    = 35.1345
RA_OF_ASC_NODE = 124.5843
ARG_OF_PERICENTER = 66.0912
MEAN_ANOMALY   = 294.2525

EPHEMERIS_TYPE = 0
CLASSIFICATION_TYPE = U
NORAD_CAT_ID   = 43521
ELEMENT_SET_NO = 999
REV_AT_EPOCH   = 40796
BSTAR          = .74250899E-3
MEAN_MOTION_DOT = .76581E-3
MEAN_MOTION_DDOT = 0

CCSDS_OMM_VERS = 2.0
CREATION_DATE  = 
ORIGINATOR     = 

OBJECT_NAME    = SAOCOM 1A
OBJECT_ID      = 2018-076A
CENTER_NAME    = EARTH
REF_FRAME      = TEME
TIME_SYSTEM    = UTC
MEAN_ELEMENT_THEORY = SGP/SGP4

EPOCH          = 2025-10-28T15:24:59.873760
MEAN_MOTION    = 14.82169746
ECCENTRICITY   = .00014187
INCLINATION    = 97.8877
RA_OF_ASC_NODE = 126.7162
ARG_OF_PERICENTER = 85.9383
MEAN_ANOMALY   = 274.1993

EPHEMERIS_TYPE = 0
CLASSIFICATION_TYPE = U
NORAD_CAT_ID   = 43641
ELEMENT_SET_NO = 999
REV_AT_EPOCH   = 38180
BSTAR          = .10005034E-3
MEAN_MOTION_DOT = .745E-5
MEAN_MOTION_DDOT = 0

CCSDS_OMM_VERS = 2.0
CREATION_DATE  = 
ORIGINATOR     = 

OBJECT_NAME    = H-2A R/B
OBJECT_ID      = 2018-084L
CENTER_NAME    = EARTH
REF_FRAME      = TEME
TIME_SYSTEM    = UTC
MEAN_ELEMENT_THEORY = SGP/SGP4

EPOCH          = 2025-10-28T13:19:07.120992
MEAN_MOTION    = 15.35168742
ECCENTRICITY   = .00294081
INCLINATION    = 98.8821
RA_OF_ASC_NODE = 126.3504
ARG_OF_PERICENTER = 119.4263
MEAN_ANOMALY   = 240.9917

EPHEMERIS_TYPE = 0
CLASSIFICATION_TYPE = U
NORAD_CAT_ID   = 43682
ELEMENT_SET_NO = 999
REV_AT_EPOCH   = 38546
BSTAR          = .66329708E-3
MEAN_MOTION_DOT = .22902E-3
MEAN_MOTION_DDOT = 0

CCSDS_OMM_VERS = 2.0
CREATION_DATE  = 
ORIGINATOR     = 

OBJECT_NAME    = SAOCOM 1B
OBJECT_ID      = 2020-059A
CENTER_NAME    = EARTH
REF_FRAME      = TEME
TIME_SYSTEM    = UTC
MEAN_ELEMENT_THEORY = SGP/SGP4

EPOCH          = 2025-10-28T14:32:50.329248
MEAN_MOTION    = 14.82160976
ECCENTRICITY   = .00013718
INCLINATION    = 97.8866
RA_OF_ASC_NODE = 125.7836
ARG_OF_PERICENTER = 88.1269
MEAN_ANOMALY   = 272.0101

EPHEMERIS_TYPE = 0
CLASSIFICATION_TYPE = U
NORAD_CAT_ID   = 46265
ELEMENT_SET_NO = 999
REV_AT_EPOCH   = 27918
BSTAR          = .99226564E-4
MEAN_MOTION_DOT = .738E-5
MEAN_MOTION_DDOT = 0

CCSDS_OMM_VERS = 2.0
CREATION_DATE  = 
ORIGINATOR     = 

OBJECT_NAME    = CSS (TIANHE)
OBJECT_ID      = 2021-035A
CENTER_NAME    = EARTH
REF_FRAME      = TEME
TIME_SYSTEM    = UTC
MEAN_ELEMENT_THEORY = SGP/SGP4

EPOCH          = 2025-10-28T05:56:07.394784
MEAN_MOTION    = 15.60823296
ECCENTRICITY   = .00107823
INCLINATION    = 41.4667
RA_OF_ASC_NODE = 293.0437
ARG_OF_PERICENTER = 297.7398
MEAN_ANOMALY   = 62.2347

EPHEMERIS_TYPE = 0
CLASSIFICATION_TYPE = U
NORAD_CAT_ID   = 48274
ELEMENT_SET_NO = 999
REV_AT_EPOCH   = 25692
BSTAR          = .4264777E-3
MEAN_MOTION_DOT = .36535E-3
MEAN_MOTION_DDOT = 0

